NORAD_CAT_ID,OBJECT_NAME,OBJECT_TYPE,EPOCH,MEAN_MOTION,ECCENTRICITY,INCLINATION,RA_OF_ASC_NODE,ARG_OF_PERICENTER,MEAN_ANOMALY,BSTAR,MEAN_MOTION_DOT,MEAN_MOTION_DDOT,TLE_LINE0,TLE_LINE1,TLE_LINE2,SEMIMAJOR_AXIS,PERIOD,APOGEE,PERIGEE,DECAYED
49134.0,STARLINK-3078,PAYLOAD,2024-07-01 01:21:03,14.98347945,0.0002909,69.9999,49.2131,267.8146,92.268,4.1636e-06,-4.3e-07,0.0,0 STARLINK-3078,1 49134U 21082E   24183.05628641 -.00000043  00000-0  41636-5 0  9997,2 49134  69.9999  49.2131 0002909 267.8146  92.2680 14.98347945154818,6950.137,96.106,574.024,569.981,0.0
49134.0,STARLINK-3078,PAYLOAD,2024-07-01 07:45:35,14.98341266,0.0002871,70.0,48.5393,269.1253,90.9577,-6.1058e-05,-8.22e-06,0.0,0 STARLINK-3078,1 49134U 21082E   24183.32332988 -.00000822  00000-0 -61058-4 0  9998,2 49134  70.0000  48.5393 0002871 269.1253  90.9577 14.98341266154852,6950.158,96.106,574.018,570.028,0.0
49134.0,STARLINK-3078,PAYLOAD,2024-07-01 14:10:07,14.98339568,0.000294,69.9997,47.8656,270.1191,89.9631,1.9284e-05,1.37e-06,0.0,0 STARLINK-3078,1 49134U 21082E   24183.59036644  .00000137  00000-0  19284-4 0  9998,2 49134  69.9997  47.8656 0002940 270.1191  89.9631 14.98339568154893,6950.163,96.106,574.072,569.985,0.0
49134.0,STARLINK-3078,PAYLOAD,2024-07-01 22:10:47,14.98342676,0.0002929,69.9998,47.024,269.7014,90.3809,4.9833e-05,5.02e-06,0.0,0 STARLINK-3078,1 49134U 21082E   24183.92416100  .00000502  00000-0  49833-4 0  9993,2 49134  69.9998  47.0240 0002929 269.7014  90.3809 14.98342676154943,6950.154,96.106,574.054,569.983,0.0
49134.0,STARLINK-3078,PAYLOAD,2024-07-02 01:23:03,14.98345819,0.0002912,69.9998,46.6874,269.7294,90.3531,8.2521e-05,8.92e-06,0.0,0 STARLINK-3078,1 49134U 21082E   24184.05767682  .00000892  00000-0  82521-4 0  9995,2 49134  69.9998  46.6874 0002912 269.7294  90.3531 14.98345819154969,6950.144,96.106,574.033,569.985,0.0
49134.0,STARLINK-3078,PAYLOAD,2024-07-02 07:47:35,14.98358695,0.0003357,69.9994,46.0094,283.3478,76.7307,-0.00030179,-3.695e-05,0.0,0 STARLINK-3078,1 49134U 21082E   24184.32471484 -.00003695  00000-0 -30179-3 0  9994,2 49134  69.9994  46.0094 0003357 283.3478  76.7307 14.98358695155004,6950.104,96.105,574.302,569.636,0.0
49134.0,STARLINK-3078,PAYLOAD,2024-07-02 20:36:41,14.9832939,0.0002749,70.0004,44.6681,271.598,88.4864,-0.00011418,-1.455e-05,0.0,0 STARLINK-3078,1 49134U 21082E   24184.85880974 -.00001455  00000-0 -11418-3 0  9997,2 49134  70.0004  44.6681 0002749 271.5980  88.4864 14.98329390155082,6950.195,96.107,573.97,570.149,0.0
49134.0,STARLINK-3078,PAYLOAD,2024-07-02 22:12:49,14.98327939,0.0002719,70.0005,44.4994,271.8939,88.1909,-0.00013648,-1.721e-05,0.0,0 STARLINK-3078,1 49134U 21082E   24184.92557120 -.00001721  00000-0 -13648-3 0  9992,2 49134  70.0005  44.4994 0002719 271.8939  88.1909 14.98327939155097,6950.199,96.107,573.954,570.175,0.0
49134.0,STARLINK-3078,PAYLOAD,2024-07-03 20:38:41,14.98331107,0.0002814,70.0002,42.1436,265.2463,94.8375,-6.8747e-05,-9.13e-06,0.0,0 STARLINK-3078,1 49134U 21082E   24185.86020631 -.00000913  00000-0 -68747-4 0  9991,2 49134  70.0002  42.1436 0002814 265.2463  94.8375 14.98331107155234,6950.189,96.107,574.01,570.099,0.0
49134.0,STARLINK-3078,PAYLOAD,2024-07-03 22:14:49,14.98330859,0.0002949,70.0002,41.9753,268.7395,91.3426,-6.5888e-05,-8.79e-06,0.0,0 STARLINK-3078,1 49134U 21082E   24185.92696633 -.00000879  00000-0 -65888-4 0  9993,2 49134  70.0002  41.9753 0002949 268.7395  91.3426 14.98330859155247,6950.19,96.107,574.105,570.006,0.0
49134.0,STARLINK-3078,PAYLOAD,2024-07-04 14:16:10,14.98321794,0.000306,69.9995,40.2912,271.4141,88.6667,7.133e-05,7.58e-06,0.0,0 STARLINK-3078,1 49134U 21082E   24186.59456813  .00000758  00000-0  71330-4 0  9994,2 49134  69.9995  40.2912 0003060 271.4141  88.6667 14.98321794155344,6950.218,96.108,574.21,569.957,0.0
49134.0,STARLINK-3078,PAYLOAD,2024-07-04 20:40:42,14.98326952,0.0003106,69.9994,39.6171,270.4067,89.6736,6.2218e-05,6.49e-06,0.0,0 STARLINK-3078,1 49134U 21082E   24186.86160601  .00000649  00000-0  62218-4 0  9995,2 49134  69.9994  39.6171 0003106 270.4067  89.6736 14.98326952155382,6950.202,96.107,574.226,569.909,0.0
49134.0,STARLINK-3078,PAYLOAD,2024-07-04 22:16:50,14.9832805,0.0003089,69.9995,39.4488,270.5657,89.5148,7.4121e-05,7.91e-06,0.0,0 STARLINK-3078,1 49134U 21082E   24186.92836514  .00000791  00000-0  74121-4 0  9999,2 49134  69.9995  39.4488 0003089 270.5657  89.5148 14.98328050155396,6950.199,96.107,574.211,569.917,0.0
49134.0,STARLINK-3078,PAYLOAD,2024-07-05 07:53:40,14.98324762,0.0002995,69.9995,38.4377,268.233,91.8486,-0.00035186,-4.288e-05,0.0,0 STARLINK-3078,1 49134U 21082E   24187.32893949 -.00004288  00000-0 -35186-3 0  9993,2 49134  69.9995  38.4377 0002995 268.2330  91.8486 14.98324762155453,6950.209,96.107,574.156,569.993,0.0
49134.0,STARLINK-3078,PAYLOAD,2024-07-05 14:18:13,14.98307764,0.0002448,69.9993,37.7652,275.6116,84.4764,-0.00012282,-1.557e-05,0.0,0 STARLINK-3078,1 49134U 21082E   24187.59599105 -.00001557  00000-0 -12282-3 0  9997,2 49134  69.9993  37.7652 0002448 275.6116  84.4764 14.98307764155490,6950.262,96.108,573.828,570.425,0.0
49134.0,STARLINK-3078,PAYLOAD,2024-07-05 22:18:53,14.98322568,0.0003087,69.9995,36.9236,271.0601,89.0204,-1.4451e-05,-2.65e-06,0.0,0 STARLINK-3078,1 49134U 21082E   24187.92978154 -.00000265  00000-0 -14451-4 0  9995,2 49134  69.9995  36.9236 0003087 271.0601  89.0204 14.98322568155545,6950.216,96.107,574.226,569.935,0.0
49134.0,STARLINK-3078,PAYLOAD,2024-07-06 14:20:13,14.98328563,0.0003126,69.9997,35.2398,271.7366,88.3435,7.4835e-05,8e-06,0.0,0 STARLINK-3078,1 49134U 21082E   24188.59737752  .00000800  00000-0  74835-4 0  9991,2 49134  69.9997  35.2398 0003126 271.7366  88.3435 14.98328563155647,6950.197,96.107,574.235,569.89,0.0
49134.0,STARLINK-3078,PAYLOAD,2024-07-06 20:44:45,14.9833463,0.0003133,69.9996,34.5673,271.3221,88.7579,9.5307e-05,1.044e-05,0.0,0 STARLINK-3078,1 49134U 21082E   24188.86441342  .00001044  00000-0  95307-4 0  9996,2 49134  69.9996  34.5673 0003133 271.3221  88.7579 14.98334630155687,6950.179,96.107,574.221,569.866,0.0
49134.0,STARLINK-3078,PAYLOAD,2024-07-06 22:20:53,14.9833563,0.0003101,69.9997,34.3988,271.5478,88.5326,0.00010763,1.192e-05,0.0,0 STARLINK-3078,1 49134U 21082E   24188.93117247  .00001192  00000-0  10763-3 0  9994,2 49134  69.9997  34.3988 0003101 271.5478  88.5326 14.98335630155696,6950.175,96.107,574.196,569.885,0.0
49134.0,STARLINK-3078,PAYLOAD,2024-07-07 14:22:13,14.98323699,0.0003176,69.9993,32.7145,273.1003,86.9793,0.00039348,4.604e-05,0.0,0 STARLINK-3078,1 49134U 21082E   24189.59877136  .00004604  00000-0  39348-3 0  9998,2 49134  69.9993  32.7145 0003176 273.1003  86.9793 14.98323699155796,6950.212,96.107,574.285,569.87,0.0
49134.0,STARLINK-3078,PAYLOAD,2024-07-07 20:46:45,14.98317752,0.0003195,69.9997,32.0422,267.2161,92.8632,0.00060875,7.176e-05,0.0,0 STARLINK-3078,1 49134U 21082E   24189.86580962  .00007176  00000-0  60875-3 0  9992,2 49134  69.9997  32.0422 0003195 267.2161  92.8632 14.98317752155837,6950.231,96.108,574.316,569.875,0.0
49134.0,STARLINK-3078,PAYLOAD,2024-07-07 22:22:53,14.98330528,0.0003054,69.9998,31.8741,269.674,90.4069,0.00043621,5.116e-05,0.0,0 STARLINK-3078,1 49134U 21082E   24189.93256620  .00005116  00000-0  43621-3 0  9993,2 49134  69.9998  31.8741 0003054 269.6740  90.4069 14.98330528155847,6950.191,96.107,574.179,569.934,0.0
49134.0,STARLINK-3078,PAYLOAD,2024-07-08 14:24:14,14.98314957,0.0002699,70.0018,30.1907,275.3768,84.7083,0.00039396,4.609e-05,0.0,0 STARLINK-3078,1 49134U 21082E   24190.60017136  .00004609  00000-0  39396-3 0  9996,2 49134  70.0018  30.1907 0002699 275.3768  84.7083 14.98314957155948,6950.239,96.108,573.98,570.229,0.0
49134.0,STARLINK-3078,PAYLOAD,2024-07-08 20:48:47,14.98333847,0.0002711,70.0007,29.5183,271.4289,88.656,-6.3776e-05,-8.54e-06,0.0,0 STARLINK-3078,1 49134U 21082E   24190.86721267 -.00000854  00000-0 -63776-4 0  9991,2 49134  70.0007  29.5183 0002711 271.4289  88.6560 14.98333847155980,6950.181,96.107,573.93,570.162,0.0
49134.0,STARLINK-3078,PAYLOAD,2024-07-08 22:24:55,14.98334415,0.0002704,70.0007,29.35,271.728,88.357,-5.643e-05,-7.66e-06,0.0,0 STARLINK-3078,1 49134U 21082E   24190.93397186 -.00000766  00000-0 -56430-4 0  9999,2 49134  70.0007  29.3500 0002704 271.7280  88.3570 14.98334415155998,6950.179,96.107,573.924,570.165,0.0
49134.0,STARLINK-3078,PAYLOAD,2024-07-09 14:26:15,14.98340507,0.0002629,70.0008,27.6665,271.1969,88.8889,-7.0777e-05,-9.38e-06,0.0,0 STARLINK-3078,1 49134U 21082E   24191.60156468 -.00000938  00000-0 -70777-4 0  9991,2 49134  70.0008  27.6665 0002629 271.1969  88.8889 14.98340507156095,6950.16,96.106,573.853,570.198,0.0
49134.0,STARLINK-3078,PAYLOAD,2024-07-09 20:50:47,14.98338008,0.0002681,70.0007,26.9931,271.2806,88.8046,-9.223e-05,-1.193e-05,0.0,0 STARLINK-3078,1 49134U 21082E   24191.86860521 -.00001193  00000-0 -92230-4 0  9993,2 49134  70.0007  26.9931 0002681 271.2806  88.8046 14.98338008156134,6950.168,96.106,573.896,570.17,0.0
49134.0,STARLINK-3078,PAYLOAD,2024-07-09 22:26:55,14.98338039,0.0002681,70.0007,26.8247,271.3405,88.7447,-8.9619e-05,-1.162e-05,0.0,0 STARLINK-3078,1 49134U 21082E   24191.93536477 -.00001162  00000-0 -89619-4 0  9994,2 49134  70.0007  26.8247 0002681 271.3405  88.7447 14.98338039156148,6950.168,96.106,573.896,570.17,0.0
49134.0,STARLINK-3078,PAYLOAD,2024-07-10 12:52:08,14.98324879,0.0002781,70.0005,25.3095,271.7253,88.3588,-1.2564e-05,-2.43e-06,0.0,0 STARLINK-3078,1 49134U 21082E   24192.53620948 -.00000243  00000-0 -12564-4 0  9992,2 49134  70.0005  25.3095 0002781 271.7253  88.3588 14.98324879156236,6950.209,96.107,574.007,570.141,0.0
49134.0,STARLINK-3078,PAYLOAD,2024-07-10 22:28:56,14.98327781,0.000278,70.0005,24.2993,271.3181,88.766,1.3011e-05,6.2e-07,0.0,0 STARLINK-3078,1 49134U 21082E   24192.93676751  .00000062  00000-0  13011-4 0  9994,2 49134  70.0005  24.2993 0002780 271.3181  88.7660 14.98327781156292,6950.2,96.107,573.997,570.133,0.0
